{
  "links" : {
    "next" : "https://api.nasa.gov/neo/rest/v1/feed?start_date=2009-09-23&end_date=2009-09-23&detailed=true&api_key=t0TVs3DtDT2H8Oy2Zy8m2eVrNsAVKAexjcZXUckd",
    "prev" : "https://api.nasa.gov/neo/rest/v1/feed?start_date=2009-09-21&end_date=2009-09-21&detailed=true&api_key=t0TVs3DtDT2H8Oy2Zy8m2eVrNsAVKAexjcZXUckd",
    "self" : "https://api.nasa.gov/neo/rest/v1/feed?start_date=2009-09-22&end_date=2009-09-22&detailed=true&api_key=t0TVs3DtDT2H8Oy2Zy8m2eVrNsAVKAexjcZXUckd"
  },
  "element_count" : 6,
  "near_earth_objects" : {
    "2009-09-22" : [ {
      "links" : {
        "self" : "https://api.nasa.gov/neo/rest/v1/neo/3467220?api_key=t0TVs3DtDT2H8Oy2Zy8m2eVrNsAVKAexjcZXUckd"
      },
      "neo_reference_id" : "3467220",
      "name" : "(2009 SD1)",
      "nasa_jpl_url" : "http://ssd.jpl.nasa.gov/sbdb.cgi?sstr=3467220",
      "absolute_magnitude_h" : 22.3,
      "estimated_diameter" : {
        "kilometers" : {
          "estimated_diameter_min" : 0.0921626549,
          "estimated_diameter_max" : 0.2060819612
        },
        "meters" : {
          "estimated_diameter_min" : 92.1626548503,
          "estimated_diameter_max" : 206.0819612321
        },
        "miles" : {
          "estimated_diameter_min" : 0.057267201,
          "estimated_diameter_max" : 0.1280533543
        },
        "feet" : {
          "estimated_diameter_min" : 302.370924539,
          "estimated_diameter_max" : 676.1219416887
        }
      },
      "is_potentially_hazardous_asteroid" : false,
      "close_approach_data" : [ {
        "close_approach_date" : "2009-09-22",
        "epoch_date_close_approach" : 1253602800000,
        "relative_velocity" : {
          "kilometers_per_second" : "21.6095651267",
          "kilometers_per_hour" : "77794.4344562374",
          "miles_per_hour" : "48338.4362319882"
        },
        "miss_distance" : {
          "astronomical" : "0.055145978",
          "lunar" : "21.4517860413",
          "kilometers" : "8249721",
          "miles" : "5126139"
        },
        "orbiting_body" : "Earth"
      } ],
      "orbital_data" : {
        "orbit_id" : "8",
        "orbit_determination_date" : "2017-04-06 09:00:00",
        "orbit_uncertainty" : "9",
        "minimum_orbit_intersection" : ".025199",
        "jupiter_tisserand_invariant" : "3.860",
        "epoch_osculation" : "2455094.5",
        "eccentricity" : ".5069694442449477",
        "semi_major_axis" : "1.72354566956836",
        "inclination" : "32.09579987978661",
        "ascending_node_longitude" : "1.072858722662551",
        "orbital_period" : "826.4805171005605",
        "perihelion_distance" : ".8497606793365022",
        "perihelion_argument" : "61.84023821319861",
        "aphelion_distance" : "2.597330659800218",
        "perihelion_time" : "2455141.569322172325",
        "mean_anomaly" : "339.4974525939427",
        "mean_motion" : ".4355819557162019",
        "equinox" : "J2000"
      }
    }, {
      "links" : {
        "self" : "https://api.nasa.gov/neo/rest/v1/neo/3467316?api_key=t0TVs3DtDT2H8Oy2Zy8m2eVrNsAVKAexjcZXUckd"
      },
      "neo_reference_id" : "3467316",
      "name" : "(2009 SH15)",
      "nasa_jpl_url" : "http://ssd.jpl.nasa.gov/sbdb.cgi?sstr=3467316",
      "absolute_magnitude_h" : 24.5,
      "estimated_diameter" : {
        "kilometers" : {
          "estimated_diameter_min" : 0.0334622374,
          "estimated_diameter_max" : 0.0748238376
        },
        "meters" : {
          "estimated_diameter_min" : 33.4622374455,
          "estimated_diameter_max" : 74.8238376074
        },
        "miles" : {
          "estimated_diameter_min" : 0.0207924639,
          "estimated_diameter_max" : 0.0464933628
        },
        "feet" : {
          "estimated_diameter_min" : 109.7842471007,
          "estimated_diameter_max" : 245.4850393757
        }
      },
      "is_potentially_hazardous_asteroid" : false,
      "close_approach_data" : [ {
        "close_approach_date" : "2009-09-22",
        "epoch_date_close_approach" : 1253602800000,
        "relative_velocity" : {
          "kilometers_per_second" : "8.6944315074",
          "kilometers_per_hour" : "31299.953426784",
          "miles_per_hour" : "19448.5738389925"
        },
        "miss_distance" : {
          "astronomical" : "0.0224679895",
          "lunar" : "8.7400474548",
          "kilometers" : "3361163.5",
          "miles" : "2088530.125"
        },
        "orbiting_body" : "Earth"
      } ],
      "orbital_data" : {
        "orbit_id" : "11",
        "orbit_determination_date" : "2017-04-06 08:59:55",
        "orbit_uncertainty" : "7",
        "minimum_orbit_intersection" : ".0175829",
        "jupiter_tisserand_invariant" : "3.885",
        "epoch_osculation" : "2458000.5",
        "eccentricity" : ".453910302137879",
        "semi_major_axis" : "1.829895646343855",
        "inclination" : "9.760611734112304",
        "ascending_node_longitude" : "359.0190828284708",
        "orbital_period" : "904.1446413602599",
        "perihelion_distance" : ".9992871606311267",
        "perihelion_argument" : "22.70872423935394",
        "aphelion_distance" : "2.660504132056584",
        "perihelion_time" : "2457829.449337445006",
        "mean_anomaly" : "68.10662332428929",
        "mean_motion" : ".3981663812754453",
        "equinox" : "J2000"
      }
    }, {
      "links" : {
        "self" : "https://api.nasa.gov/neo/rest/v1/neo/3608620?api_key=t0TVs3DtDT2H8Oy2Zy8m2eVrNsAVKAexjcZXUckd"
      },
      "neo_reference_id" : "3608620",
      "name" : "(2012 RJ15)",
      "nasa_jpl_url" : "http://ssd.jpl.nasa.gov/sbdb.cgi?sstr=3608620",
      "absolute_magnitude_h" : 23.6,
      "estimated_diameter" : {
        "kilometers" : {
          "estimated_diameter_min" : 0.0506471459,
          "estimated_diameter_max" : 0.1132504611
        },
        "meters" : {
          "estimated_diameter_min" : 50.6471458835,
          "estimated_diameter_max" : 113.2504610618
        },
        "miles" : {
          "estimated_diameter_min" : 0.0314706677,
          "estimated_diameter_max" : 0.0703705522
        },
        "feet" : {
          "estimated_diameter_min" : 166.1651821003,
          "estimated_diameter_max" : 371.5566426699
        }
      },
      "is_potentially_hazardous_asteroid" : false,
      "close_approach_data" : [ {
        "close_approach_date" : "2009-09-22",
        "epoch_date_close_approach" : 1253602800000,
        "relative_velocity" : {
          "kilometers_per_second" : "13.43524873",
          "kilometers_per_hour" : "48366.8954281573",
          "miles_per_hour" : "30053.3078842348"
        },
        "miss_distance" : {
          "astronomical" : "0.1464901694",
          "lunar" : "56.9846763611",
          "kilometers" : "21914618",
          "miles" : "13617112"
        },
        "orbiting_body" : "Earth"
      } ],
      "orbital_data" : {
        "orbit_id" : "8",
        "orbit_determination_date" : "2017-04-06 08:49:02",
        "orbit_uncertainty" : "7",
        "minimum_orbit_intersection" : ".0861491",
        "jupiter_tisserand_invariant" : "5.954",
        "epoch_osculation" : "2458000.5",
        "eccentricity" : ".1239925543832356",
        "semi_major_axis" : "1.008238435439085",
        "inclination" : "24.77533426614956",
        "ascending_node_longitude" : "175.8704579198972",
        "orbital_period" : "369.7799001578682",
        "perihelion_distance" : ".8832243764016361",
        "perihelion_argument" : "320.1370432840499",
        "aphelion_distance" : "1.133252494476534",
        "perihelion_time" : "2458175.427502636841",
        "mean_anomaly" : "189.6989616732073",
        "mean_motion" : ".9735521044986682",
        "equinox" : "J2000"
      }
    } ]
  }
}